{"type": "FeatureCollection", "features": [ {"type": "Feature", "properties": {"norad_id": 67120, "name": "STARLINK-36217", "group": "last-30-days", "lat": 24.855166109145514, "lon": 36.82703758317549, "alt_km": 304.31026081046093, "timestamp": "2025-12-24T03:53:28.365580+00:00", "meta": {"OBJECT_NAME": "STARLINK-36217", "OBJECT_ID": "2025-299U", "EPOCH": "2025-12-23T20:00:01.000224", "MEAN_MOTION": 15.89482149, "ECCENTRICITY": 0.0001696, "INCLINATION": 42.9979, "RA_OF_ASC_NODE": 248.6756, "ARG_OF_PERICENTER": 270.9206, "MEAN_ANOMALY": 148.0541, "EPHEMERIS_TYPE": 0, "CLASSIFICATION_TYPE": "U", "NORAD_CAT_ID": 67120, "ELEMENT_SET_NO": 999, "REV_AT_EPOCH": 259, "BSTAR": -0.0069011, "MEAN_MOTION_DOT": -0.01802857, "MEAN_MOTION_DDOT": 0}, "tle": {"line1": "1 67120U 25299U   25357.83334491 -.01802857  00000+0 -69011-2 0  9991", "line2": "2 67120  42.9979 248.6756 0001696 270.9206 148.0541 15.89482149  2594"}}, "geometry": {"type": "Point", "coordinates": [36.82703758317549, 24.855166109145514]}}, {"type": "Feature", "properties": {"norad_id": 67121, "name": "STARLINK-36124", "group": "last-30-days", "lat": 22.04373681691149, "lon": 40.86942679701226, "alt_km": 304.4835473202511, "timestamp": "2025-12-24T03:53:28.365590+00:00", "meta": {"OBJECT_NAME": "STARLINK-36124", "OBJECT_ID": "2025-299V", "EPOCH": "2025-12-23T20:00:01.000224", "MEAN_MOTION": 15.89516512, "ECCENTRICITY": 0.0001642, "INCLINATION": 42.9978, "RA_OF_ASC_NODE": 248.6638, "ARG_OF_PERICENTER": 267.2684, "MEAN_ANOMALY": 156.3254, "EPHEMERIS_TYPE": 0, "CLASSIFICATION_TYPE": "U", "NORAD_CAT_ID": 67121, "ELEMENT_SET_NO": 999, "REV_AT_EPOCH": 259, "BSTAR": -0.0068958, "MEAN_MOTION_DOT": -0.01804346, "MEAN_MOTION_DDOT": 0}, "tle": {"line1": "1 67121U 25299V   25357.83334491 -.01804346  00000+0 -68958-2 0  9996", "line2": "2 67121  42.9978 248.6638 0001642 267.2684 156.3254 15.89516512  2598"}}, "geometry": {"type": "Point", "coordinates": [40.86942679701226, 22.04373681691149]}}, {"type": "Feature", "properties": {"norad_id": 67122, "name": "STARLINK-36188", "group": "last-30-days", "lat": 21.14998794194416, "lon": 42.09181811684398, "alt_km": 304.52246336130156, "timestamp": "2025-12-24T03:53:28.365600+00:00", "meta": {"OBJECT_NAME": "STARLINK-36188", "OBJECT_ID": "2025-299W", "EPOCH": "2025-12-23T20:00:01.000224", "MEAN_MOTION": 15.89530357, "ECCENTRICITY": 0.0001614, "INCLINATION": 42.9979, "RA_OF_ASC_NODE": 248.6604, "ARG_OF_PERICENTER": 266.1774, "MEAN_ANOMALY": 158.8468, "EPHEMERIS_TYPE": 0, "CLASSIFICATION_TYPE": "U", "NORAD_CAT_ID": 67122, "ELEMENT_SET_NO": 999, "REV_AT_EPOCH": 259, "BSTAR": -0.0068861, "MEAN_MOTION_DOT": -0.01803236, "MEAN_MOTION_DDOT": 0}, "tle": {"line1": "1 67122U 25299W   25357.83334491 -.01803236  00000+0 -68861-2 0  9997", "line2": "2 67122  42.9979 248.6604 0001614 266.1774 158.8468 15.89530357  2597"}}, "geometry": {"type": "Point", "coordinates": [42.09181811684398, 21.14998794194416]}}, {"type": "Feature", "properties": {"norad_id": 67123, "name": "STARLINK-36151", "group": "last-30-days", "lat": 23.109639431701087, "lon": 39.375096070765395, "alt_km": 304.4443500147936, "timestamp": "2025-12-24T03:53:28.365612+00:00", "meta": {"OBJECT_NAME": "STARLINK-36151", "OBJECT_ID": "2025-299X", "EPOCH": "2025-12-23T20:00:01.000224", "MEAN_MOTION": 15.8951495, "ECCENTRICITY": 0.0001722, "INCLINATION": 42.9982, "RA_OF_ASC_NODE": 248.6685, "ARG_OF_PERICENTER": 269.5992, "MEAN_ANOMALY": 152.2532, "EPHEMERIS_TYPE": 0, "CLASSIFICATION_TYPE": "U", "NORAD_CAT_ID": 67123, "ELEMENT_SET_NO": 999, "REV_AT_EPOCH": 259, "BSTAR": -0.0069169, "MEAN_MOTION_DOT": -0.01809026, "MEAN_MOTION_DDOT": 0}, "tle": {"line1": "1 67123U 25299X   25357.83334491 -.01809026  00000+0 -69169-2 0  9993", "line2": "2 67123  42.9982 248.6685 0001722 269.5992 152.2532 15.89514950  2591"}}, "geometry": {"type": "Point", "coordinates": [39.375096070765395, 23.109639431701087]}}, {"type": "Feature", "properties": {"norad_id": 67124, "name": "STARLINK-36195", "group": "last-30-days", "lat": 20.135040344077677, "lon": 43.44808253217414, "alt_km": 304.7121190210182, "timestamp": "2025-12-24T03:53:28.365622+00:00", "meta": {"OBJECT_NAME": "STARLINK-36195", "OBJECT_ID": "2025-299Y", "EPOCH": "2025-12-23T20:00:01.000224", "MEAN_MOTION": 15.89532315, "ECCENTRICITY": 0.0001762, "INCLINATION": 42.9982, "RA_OF_ASC_NODE": 248.6563, "ARG_OF_PERICENTER": 267.5531, "MEAN_ANOMALY": 159.0932, "EPHEMERIS_TYPE": 0, "CLASSIFICATION_TYPE": "U", "NORAD_CAT_ID": 67124, "ELEMENT_SET_NO": 999, "REV_AT_EPOCH": 259, "BSTAR": -0.0068513, "MEAN_MOTION_DOT": -0.01795767, "MEAN_MOTION_DDOT": 0}, "tle": {"line1": "1 67124U 25299Y   25357.83334491 -.01795767  00000+0 -68513-2 0  9992", "line2": "2 67124  42.9982 248.6563 0001762 267.5531 159.0932 15.89532315  2592"}}, "geometry": {"type": "Point", "coordinates": [43.44808253217414, 20.135040344077677]}}, {"type": "Feature", "properties": {"norad_id": 67125, "name": "STARLINK-36219", "group": "last-30-days", "lat": 19.16910853433977, "lon": 44.709022104832506, "alt_km": 304.8110083636657, "timestamp": "2025-12-24T03:53:28.365632+00:00", "meta": {"OBJECT_NAME": "STARLINK-36219", "OBJECT_ID": "2025-299Z", "EPOCH": "2025-12-23T20:00:01.000224", "MEAN_MOTION": 15.89548087, "ECCENTRICITY": 0.0001619, "INCLINATION": 42.9977, "RA_OF_ASC_NODE": 248.6521, "ARG_OF_PERICENTER": 270.0036, "MEAN_ANOMALY": 158.158, "EPHEMERIS_TYPE": 0, "CLASSIFICATION_TYPE": "U", "NORAD_CAT_ID": 67125, "ELEMENT_SET_NO": 999, "REV_AT_EPOCH": 259, "BSTAR": -0.0068741, "MEAN_MOTION_DOT": -0.01801968, "MEAN_MOTION_DDOT": 0}, "tle": {"line1": "1 67125U 25299Z   25357.83334491 -.01801968  00000+0 -68741-2 0  9997", "line2": "2 67125  42.9977 248.6521 0001619 270.0036 158.1580 15.89548087  2593"}}, "geometry": {"type": "Point", "coordinates": [44.709022104832506, 19.16910853433977]}}, {"type": "Feature", "properties": {"norad_id": 67126, "name": "STARLINK-36223", "group": "last-30-days", "lat": 17.995696948480326, "lon": 46.20759734071294, "alt_km": 304.917215374041, "timestamp": "2025-12-24T03:53:28.365642+00:00", "meta": {"OBJECT_NAME": "STARLINK-36223", "OBJECT_ID": "2025-299AA", "EPOCH": "2025-12-23T20:00:01.000224", "MEAN_MOTION": 15.89555636, "ECCENTRICITY": 0.0001737, "INCLINATION": 42.9978, "RA_OF_ASC_NODE": 248.6475, "ARG_OF_PERICENTER": 266.6098, "MEAN_ANOMALY": 163.394, "EPHEMERIS_TYPE": 0, "CLASSIFICATION_TYPE": "U", "NORAD_CAT_ID": 67126, "ELEMENT_SET_NO": 999, "REV_AT_EPOCH": 259, "BSTAR": -0.0069111, "MEAN_MOTION_DOT": -0.01810994, "MEAN_MOTION_DDOT": 0}, "tle": {"line1": "1 67126U 25299AA  25357.83334491 -.01810994  00000+0 -69111-2 0  9999", "line2": "2 67126  42.9978 248.6475 0001737 266.6098 163.3940 15.89555636  2599"}}, "geometry": {"type": "Point", "coordinates": [46.20759734071294, 17.995696948480326]}}, {"type": "Feature", "properties": {"norad_id": 67127, "name": "STARLINK-36164", "group": "last-30-days", "lat": 16.92598182368496, "lon": 47.54389779607782, "alt_km": 305.0146265511612, "timestamp": "2025-12-24T03:53:28.365652+00:00", "meta": {"OBJECT_NAME": "STARLINK-36164", "OBJECT_ID": "2025-299AB", "EPOCH": "2025-12-23T20:00:01.000224", "MEAN_MOTION": 15.89559016, "ECCENTRICITY": 0.000169, "INCLINATION": 42.9979, "RA_OF_ASC_NODE": 248.6433, "ARG_OF_PERICENTER": 266.9542, "MEAN_ANOMALY": 164.707, "EPHEMERIS_TYPE": 0, "CLASSIFICATION_TYPE": "U", "NORAD_CAT_ID": 67127, "ELEMENT_SET_NO": 999, "REV_AT_EPOCH": 259, "BSTAR": -0.0068727, "MEAN_MOTION_DOT": -0.01802594, "MEAN_MOTION_DDOT": 0}, "tle": {"line1": "1 67127U 25299AB  25357.83334491 -.01802594  00000+0 -68727-2 0  9999", "line2": "2 67127  42.9979 248.6433 0001690 266.9542 164.7070 15.89559016  2595"}}, "geometry": {"type": "Point", "coordinates": [47.54389779607782, 16.92598182368496]}}, {"type": "Feature", "properties": {"norad_id": 67128, "name": "STARLINK-35685", "group": "last-30-days", "lat": 13.802019813261458, "lon": 51.30748243198957, "alt_km": 305.4777514467796, "timestamp": "2025-12-24T03:53:28.365664+00:00", "meta": {"OBJECT_NAME": "STARLINK-35685", "OBJECT_ID": "2025-299AC", "EPOCH": "2025-12-23T20:00:01.000224", "MEAN_MOTION": 15.89532609, "ECCENTRICITY": 0.0001722, "INCLINATION": 42.9977, "RA_OF_ASC_NODE": 248.6309, "ARG_OF_PERICENTER": 266.9919, "MEAN_ANOMALY": 169.4959, "EPHEMERIS_TYPE": 0, "CLASSIFICATION_TYPE": "U", "NORAD_CAT_ID": 67128, "ELEMENT_SET_NO": 999, "REV_AT_EPOCH": 259, "BSTAR": -0.0068855, "MEAN_MOTION_DOT": -0.01803419, "MEAN_MOTION_DDOT": 0}, "tle": {"line1": "1 67128U 25299AC  25357.83334491 -.01803419  00000+0 -68855-2 0  9999", "line2": "2 67128  42.9977 248.6309 0001722 266.9919 169.4959 15.89532609  2597"}}, "geometry": {"type": "Point", "coordinates": [51.30748243198957, 13.802019813261458]}}, {"type": "Feature", "properties": {"norad_id": 67129, "name": "STARLINK-36214", "group": "last-30-days", "lat": 15.653137507581086, "lon": 49.1003168613988, "alt_km": 305.1969288811797, "timestamp": "2025-12-24T03:53:28.365674+00:00", "meta": {"OBJECT_NAME": "STARLINK-36214", "OBJECT_ID": "2025-299AD", "EPOCH": "2025-12-23T20:00:01.000224", "MEAN_MOTION": 15.89550991, "ECCENTRICITY": 0.0001552, "INCLINATION": 42.9978, "RA_OF_ASC_NODE": 248.6381, "ARG_OF_PERICENTER": 269.5134, "MEAN_ANOMALY": 164.1168, "EPHEMERIS_TYPE": 0, "CLASSIFICATION_TYPE": "U", "NORAD_CAT_ID": 67129, "ELEMENT_SET_NO": 999, "REV_AT_EPOCH": 259, "BSTAR": -0.0068412, "MEAN_MOTION_DOT": -0.01794737, "MEAN_MOTION_DDOT": 0}, "tle": {"line1": "1 67129U 25299AD  25357.83334491 -.01794737  00000+0 -68412-2 0  9991", "line2": "2 67129  42.9978 248.6381 0001552 269.5134 164.1168 15.89550991  2596"}}, "geometry": {"type": "Point", "coordinates": [49.1003168613988, 15.653137507581086]}}]}